NORAD_CAT_ID,OBJECT_NAME,OBJECT_TYPE,EPOCH,MEAN_MOTION,ECCENTRICITY,INCLINATION,RA_OF_ASC_NODE,ARG_OF_PERICENTER,MEAN_ANOMALY,BSTAR,MEAN_MOTION_DOT,MEAN_MOTION_DDOT,TLE_LINE0,TLE_LINE1,TLE_LINE2,SEMIMAJOR_AXIS,PERIOD,APOGEE,PERIGEE,DECAYED
54802.0,STARLINK-5426,PAYLOAD,2024-01-21 19:27:10,15.0884703,0.0001463,53.2162,240.6152,97.1012,263.0146,0.00014567,2.032e-05,0.0,0 STARLINK-5426,1 54802U 22175AW  24021.81054004  .00002032  00000-0  14567-3 0  9990,2 54802  53.2162 240.6152 0001463  97.1012 263.0146 15.08847030 61100,6917.859,95.437,540.736,538.712,0.0
54802.0,STARLINK-5426,PAYLOAD,2024-01-21 21:02:33,15.08846786,0.0001466,53.2163,240.318,94.2842,265.8317,0.00013645,1.885e-05,0.0,0 STARLINK-5426,1 54802U 22175AW  24021.87677992  .00001885  00000-0  13645-3 0  9994,2 54802  53.2163 240.3180 0001466  94.2842 265.8317 15.08846786 63278,6917.86,95.437,540.739,538.71,0.0
54802.0,STARLINK-5426,PAYLOAD,2024-01-22 00:13:19,15.08849004,0.0001643,53.216,239.7213,103.2827,256.8348,0.00018296,2.626e-05,0.0,0 STARLINK-5426,1 54802U 22175AW  24022.00925832  .00002626  00000-0  18296-3 0  9990,2 54802  53.2160 239.7213 0001643 103.2827 256.8348 15.08849004 61138,6917.853,95.437,540.854,538.581,0.0
54802.0,STARLINK-5426,PAYLOAD,2024-01-22 19:17:58,15.08839023,0.0001429,53.2152,236.1519,87.4828,272.6328,0.00011126,1.483e-05,0.0,0 STARLINK-5426,1 54802U 22175AW  24022.80414437  .00001483  00000-0  11126-3 0  9997,2 54802  53.2152 236.1519 0001429  87.4828 272.6328 15.08839023 61252,6917.883,95.438,540.737,538.76,0.0
54802.0,STARLINK-5426,PAYLOAD,2024-01-22 20:53:21,15.08839193,0.0001432,53.2152,235.8545,87.2382,272.8774,0.00010043,1.311e-05,0.0,0 STARLINK-5426,1 54802U 22175AW  24022.87038374  .00001311  00000-0  10043-3 0  9993,2 54802  53.2152 235.8545 0001432  87.2382 272.8774 15.08839193 63420,6917.883,95.438,540.738,538.757,0.0
54802.0,STARLINK-5426,PAYLOAD,2024-01-23 19:08:44,15.08844044,0.0001436,53.2151,231.6909,89.5463,270.5693,7.9416e-05,9.76e-06,0.0,0 STARLINK-5426,1 54802U 22175AW  24023.79774022  .00000976  00000-0  79416-4 0  9998,2 54802  53.2151 231.6909 0001436  89.5463 270.5693 15.08844044 63567,6917.868,95.437,540.726,538.74,0.0
54802.0,STARLINK-5426,PAYLOAD,2024-01-24 03:05:40,15.08833232,0.0001461,53.2145,230.2071,78.3919,281.7237,-9.1518e-05,-1.744e-05,0.0,0 STARLINK-5426,1 54802U 22175AW  24024.12894535 -.00001744  00000-0 -91518-4 0  9991,2 54802  53.2145 230.2071 0001461  78.3919 281.7237 15.08833232 61456,6917.901,95.438,540.777,538.755,0.0
54802.0,STARLINK-5426,PAYLOAD,2024-01-24 12:37:59,15.08836331,0.0001339,53.2143,228.4236,89.0061,271.1085,9.5677e-05,1.235e-05,0.0,0 STARLINK-5426,1 54802U 22175AW  24024.52638685  .00001235  00000-0  95677-4 0  9990,2 54802  53.2143 228.4236 0001339  89.0061 271.1085 15.08836331 63670,6917.892,95.438,540.683,538.83,0.0
54802.0,STARLINK-5426,PAYLOAD,2024-01-24 18:59:32,15.08838558,0.0001351,53.2137,227.2333,94.5493,265.5653,7.2937e-05,8.73e-06,0.0,0 STARLINK-5426,1 54802U 22175AW  24024.79134416  .00000873  00000-0  72937-4 0  9993,2 54802  53.2137 227.2333 0001351  94.5493 265.5653 15.08838558 61558,6917.885,95.438,540.684,538.815,0.0
54802.0,STARLINK-5426,PAYLOAD,2024-01-24 20:34:55,15.08839402,0.0001296,53.214,226.936,91.9124,268.2017,8.5924e-05,1.08e-05,0.0,0 STARLINK-5426,1 54802U 22175AW  24024.85758371  .00001080  00000-0  85924-4 0  9993,2 54802  53.2140 226.9360 0001296  91.9124 268.2017 15.08839402 63722,6917.882,95.438,540.644,538.851,0.0
54802.0,STARLINK-5426,PAYLOAD,2024-01-24 22:10:18,15.08840765,0.0001307,53.214,226.6386,92.4901,267.624,0.00010883,1.445e-05,0.0,0 STARLINK-5426,1 54802U 22175AW  24024.92382333  .00001445  00000-0  10883-3 0  9998,2 54802  53.2140 226.6386 0001307  92.4901 267.6240 15.08840765 61575,6917.878,95.438,540.647,538.839,0.0
54802.0,STARLINK-5426,PAYLOAD,2024-01-25 18:50:19,15.08837878,0.0001351,53.2136,222.7728,109.8038,250.31,6.4703e-05,7.42e-06,0.0,0 STARLINK-5426,1 54802U 22175AW  24025.78494513  .00000742  00000-0  64703-4 0  9997,2 54802  53.2136 222.7728 0001351 109.8038 250.3100 15.08837878 61700,6917.887,95.438,540.686,538.817,0.0
54802.0,STARLINK-5426,PAYLOAD,2024-01-25 20:25:42,15.08840478,0.0001259,53.214,222.4756,94.1891,265.9245,6.565e-05,7.57e-06,0.0,0 STARLINK-5426,1 54802U 22175AW  24025.85118527  .00000757  00000-0  65650-4 0  9991,2 54802  53.2140 222.4756 0001259  94.1891 265.9245 15.08840478 63875,6917.879,95.438,540.615,538.873,0.0
54802.0,STARLINK-5426,PAYLOAD,2024-01-26 18:41:06,15.08846475,0.0001276,53.2141,218.3125,97.7489,262.3648,0.00024001,3.535e-05,0.0,0 STARLINK-5426,1 54802U 22175AW  24026.77854358  .00003535  00000-0  24001-3 0  9993,2 54802  53.2141 218.3125 0001276  97.7489 262.3648 15.08846475 61858,6917.861,95.437,540.608,538.843,0.0
54802.0,STARLINK-5426,PAYLOAD,2024-01-26 20:16:29,15.0884708,0.0001263,53.2141,218.0152,96.4849,263.6286,0.00024151,3.559e-05,0.0,0 STARLINK-5426,1 54802U 22175AW  24026.84478302  .00003559  00000-0  24151-3 0  9994,2 54802  53.2141 218.0152 0001263  96.4849 263.6286 15.08847080 61863,6917.859,95.437,540.597,538.85,0.0
54802.0,STARLINK-5426,PAYLOAD,2024-01-27 20:07:16,15.08841343,0.0001232,53.2143,213.556,96.5672,263.546,0.00010472,1.379e-05,0.0,0 STARLINK-5426,1 54802U 22175AW  24027.83838673  .00001379  00000-0  10472-3 0  9994,2 54802  53.2143 213.5560 0001232  96.5672 263.5460 15.08841343 62016,6917.876,95.437,540.594,538.889,0.0
54802.0,STARLINK-5426,PAYLOAD,2024-01-27 21:42:39,15.0884066,0.000127,53.2147,213.2553,91.5514,268.5624,8.1496e-05,1.009e-05,0.0,0 STARLINK-5426,1 54802U 22175AW  24027.90462633  .00001009  00000-0  81496-4 0  9996,2 54802  53.2147 213.2553 0001270  91.5514 268.5624 15.08840660 64189,6917.878,95.438,540.622,538.865,0.0
54802.0,STARLINK-5426,PAYLOAD,2024-01-28 12:01:07,15.08849333,0.0001351,53.215,210.579,87.4877,272.627,-0.00017517,-3.075e-05,0.0,0 STARLINK-5426,1 54802U 22175AW  24028.50078437 -.00003075  00000-0 -17517-3 0  9997,2 54802  53.2150 210.5790 0001351  87.4877 272.6270 15.08849333 62112,6917.852,95.437,540.651,538.782,0.0
54802.0,STARLINK-5426,PAYLOAD,2024-01-28 18:22:40,15.08844224,0.0001367,53.2161,209.3908,82.3702,277.7445,8.4498e-05,1.057e-05,0.0,0 STARLINK-5426,1 54802U 22175AW  24028.76574621  .00001057  00000-0  84498-4 0  9990,2 54802  53.2161 209.3908 0001367  82.3702 277.7445 15.08844224 62157,6917.867,95.437,540.678,538.787,0.0
54802.0,STARLINK-5426,PAYLOAD,2024-01-28 21:33:26,15.08845067,0.0001351,53.216,208.7955,84.6225,275.4922,8.6257e-05,1.085e-05,0.0,0 STARLINK-5426,1 54802U 22175AW  24028.89822496  .00001085  00000-0  86257-4 0  9996,2 54802  53.2160 208.7955 0001351  84.6225 275.4922 15.08845067 64332,6917.865,95.437,540.665,538.795,0.0
54802.0,STARLINK-5426,PAYLOAD,2024-01-30 14:53:28,15.08840941,0.0001255,53.216,201.0637,96.875,263.2385,5.8526e-05,6.44e-06,0.0,0 STARLINK-5426,1 54802U 22175AW  24030.62046813  .00000644  00000-0  58526-4 0  9999,2 54802  53.2160 201.0637 0001255  96.8750 263.2385 15.08840941 64598,6917.878,95.437,540.611,538.874,0.0
54802.0,STARLINK-5426,PAYLOAD,2024-01-30 18:04:14,15.08840496,0.0001201,53.2162,200.4688,94.6305,265.4825,4.1146e-05,3.67e-06,0.0,0 STARLINK-5426,1 54802U 22175AW  24030.75294831  .00000367  00000-0  41146-4 0  9990,2 54802  53.2162 200.4688 0001201  94.6305 265.4825 15.08840496 62453,6917.879,95.438,540.575,538.913,0.0
54802.0,STARLINK-5426,PAYLOAD,2024-01-30 21:15:01,15.08839822,0.0001205,53.2163,199.8741,94.3848,265.7281,3.1075e-05,2.07e-06,0.0,0 STARLINK-5426,1 54802U 22175AW  24030.88542849  .00000207  00000-0  31075-4 0  9992,2 54802  53.2163 199.8741 0001205  94.3848 265.7281 15.08839822 64630,6917.881,95.438,540.58,538.912,0.0
54802.0,STARLINK-5426,PAYLOAD,2024-01-31 11:33:29,15.08836339,0.000119,53.2163,197.1977,89.8068,270.306,8.3929e-05,1.048e-05,0.0,0 STARLINK-5426,1 54802U 22175AW  24031.48158944  .00001048  00000-0  83929-4 0  9997,2 54802  53.2163 197.1977 0001190  89.8068 270.3060 15.08836339 62565,6917.892,95.438,540.58,538.933,0.0
54802.0,STARLINK-5426,PAYLOAD,2024-02-01 11:24:16,15.08837768,0.0001194,53.2164,192.7373,87.267,272.8458,7.165e-05,8.53e-06,0.0,0 STARLINK-5426,1 54802U 22175AW  24032.47519102  .00000853  00000-0  71650-4 0  9995,2 54802  53.2164 192.7373 0001194  87.2670 272.8458 15.08837768 62714,6917.887,95.438,540.578,538.926,0.0
54802.0,STARLINK-5426,PAYLOAD,2024-02-01 16:10:25,15.08837815,0.0001167,53.2159,191.845,85.1062,275.0063,6.8371e-05,8e-06,0.0,0 STARLINK-5426,1 54802U 22175AW  24032.67391162  .00000800  00000-0  68371-4 0  9999,2 54802  53.2159 191.8450 0001167  85.1062 275.0063 15.08837815 62749,6917.887,95.438,540.559,538.945,0.0
54802.0,STARLINK-5426,PAYLOAD,2024-02-02 09:39:40,15.08837791,0.0001209,53.2159,188.5748,84.8667,275.2463,6.0454e-05,6.74e-06,0.0,0 STARLINK-5426,1 54802U 22175AW  24033.40255320  .00000674  00000-0  60454-4 0  9999,2 54802  53.2159 188.5748 0001209  84.8667 275.2463 15.08837791 62857,6917.887,95.438,540.589,538.916,0.0
54802.0,STARLINK-5426,PAYLOAD,2024-02-02 14:25:49,15.08839604,0.0001206,53.2158,187.6836,84.321,275.792,7.1141e-05,8.45e-06,0.0,0 STARLINK-5426,1 54802U 22175AW  24033.60127195  .00000845  00000-0  71141-4 0  9994,2 54802  53.2158 187.6836 0001206  84.3210 275.7920 15.08839604 65042,6917.882,95.438,540.581,538.912,0.0
54802.0,STARLINK-5426,PAYLOAD,2024-02-02 17:36:35,15.08842816,0.0001327,53.2162,187.0885,82.176,277.9382,9.6234e-05,1.244e-05,0.0,0 STARLINK-5426,1 54802U 22175AW  24033.73374957  .00001244  00000-0  96234-4 0  9992,2 54802  53.2162 187.0885 0001327  82.1760 277.9382 15.08842816 62902,6917.872,95.437,540.655,538.819,0.0
54802.0,STARLINK-5426,PAYLOAD,2024-02-03 19:02:46,15.08842881,0.0001334,53.2164,182.3309,78.8519,281.2623,9.5885e-05,1.239e-05,0.0,0 STARLINK-5426,1 54802U 22175AW  24034.79359057  .00001239  00000-0  95885-4 0  9998,2 54802  53.2164 182.3309 0001334  78.8519 281.2623 15.08842881 63061,6917.872,95.437,540.659,538.814,0.0
